CCSDS_OMM_VERS = 2.0
CREATION_DATE  = 
ORIGINATOR     = 

OBJECT_NAME    = GUOWANG GROUP 20 OBJECT G
OBJECT_ID      = 2026-047G
CENTER_NAME    = EARTH
REF_FRAME      = TEME
TIME_SYSTEM    = UTC
MEAN_ELEMENT_THEORY = SGP/SGP4

EPOCH          = 2026-03-17T21:59:52.008288
MEAN_MOTION    = 14.06047313
ECCENTRICITY   = .00073938
INCLINATION    = 50.0116
RA_OF_ASC_NODE = 36.9096
ARG_OF_PERICENTER = 287.5595
MEAN_ANOMALY   = 72.4502

EPHEMERIS_TYPE = 0
CLASSIFICATION_TYPE = U
NORAD_CAT_ID   = 68135
ELEMENT_SET_NO = 999
REV_AT_EPOCH   = 72
BSTAR          = .5070012E-5
MEAN_MOTION_DOT = -.144E-5
MEAN_MOTION_DDOT = 0

CCSDS_OMM_VERS = 2.0
CREATION_DATE  = 
ORIGINATOR     = 

OBJECT_NAME    = GUOWANG GROUP 20 OBJECT H
OBJECT_ID      = 2026-047H
CENTER_NAME    = EARTH
REF_FRAME      = TEME
TIME_SYSTEM    = UTC
MEAN_ELEMENT_THEORY = SGP/SGP4

EPOCH          = 2026-03-17T16:52:20.324064
MEAN_MOTION    = 14.06144251
ECCENTRICITY   = .00075136
INCLINATION    = 50.0098
RA_OF_ASC_NODE = 37.7770
ARG_OF_PERICENTER = 293.0100
MEAN_ANOMALY   = 67.0012

EPHEMERIS_TYPE = 0
CLASSIFICATION_TYPE = U
NORAD_CAT_ID   = 68136
ELEMENT_SET_NO = 999
REV_AT_EPOCH   = 68
BSTAR          = .6456206E-5
MEAN_MOTION_DOT = -.142E-5
MEAN_MOTION_DDOT = 0

CCSDS_OMM_VERS = 2.0
CREATION_DATE  = 
ORIGINATOR     = 

OBJECT_NAME    = GUOWANG GROUP 20 OBJECT J
OBJECT_ID      = 2026-047J
CENTER_NAME    = EARTH
REF_FRAME      = TEME
TIME_SYSTEM    = UTC
MEAN_ELEMENT_THEORY = SGP/SGP4

EPOCH          = 2026-03-17T21:58:41.825568
MEAN_MOTION    = 14.06272217
ECCENTRICITY   = .00059232
INCLINATION    = 50.0080
RA_OF_ASC_NODE = 36.9007
ARG_OF_PERICENTER = 289.0518
MEAN_ANOMALY   = 70.9745

EPHEMERIS_TYPE = 0
CLASSIFICATION_TYPE = U
NORAD_CAT_ID   = 68137
ELEMENT_SET_NO = 999
REV_AT_EPOCH   = 72
BSTAR          = .6343646E-5
MEAN_MOTION_DOT = -.142E-5
MEAN_MOTION_DDOT = 0

CCSDS_OMM_VERS = 2.0
CREATION_DATE  = 
ORIGINATOR     = 

OBJECT_NAME    = CZ-8A R/B
OBJECT_ID      = 2026-047K
CENTER_NAME    = EARTH
REF_FRAME      = TEME
TIME_SYSTEM    = UTC
MEAN_ELEMENT_THEORY = SGP/SGP4

EPOCH          = 2026-03-17T23:10:42.548736
MEAN_MOTION    = 14.12228004
ECCENTRICITY   = .00447426
INCLINATION    = 49.9542
RA_OF_ASC_NODE = 36.4466
ARG_OF_PERICENTER = 166.8846
MEAN_ANOMALY   = 193.3235

EPHEMERIS_TYPE = 0
CLASSIFICATION_TYPE = U
NORAD_CAT_ID   = 68138
ELEMENT_SET_NO = 999
REV_AT_EPOCH   = 72
BSTAR          = -.22595696E-4
MEAN_MOTION_DOT = -.197E-5
MEAN_MOTION_DDOT = 0

CCSDS_OMM_VERS = 2.0
CREATION_DATE  = 
ORIGINATOR     = 

OBJECT_NAME    = SHIYAN-30 03
OBJECT_ID      = 2026-048A
CENTER_NAME    = EARTH
REF_FRAME      = TEME
TIME_SYSTEM    = UTC
MEAN_ELEMENT_THEORY = SGP/SGP4

EPOCH          = 2026-03-17T17:40:47.340192
MEAN_MOTION    = 14.91668826
ECCENTRICITY   = .0004118
INCLINATION    = 34.9994
RA_OF_ASC_NODE = 95.8126
ARG_OF_PERICENTER = 275.0876
MEAN_ANOMALY   = 84.9359

EPHEMERIS_TYPE = 0
CLASSIFICATION_TYPE = U
NORAD_CAT_ID   = 68139
ELEMENT_SET_NO = 999
REV_AT_EPOCH   = 70
BSTAR          = .21801905E-3
MEAN_MOTION_DOT = .2207E-4
MEAN_MOTION_DDOT = 0

CCSDS_OMM_VERS = 2.0
CREATION_DATE  = 
ORIGINATOR     = 

OBJECT_NAME    = SHIYAN-30 04
OBJECT_ID      = 2026-048B
CENTER_NAME    = EARTH
REF_FRAME      = TEME
TIME_SYSTEM    = UTC
MEAN_ELEMENT_THEORY = SGP/SGP4

EPOCH          = 2026-03-17T17:41:55.764672
MEAN_MOTION    = 14.91679159
ECCENTRICITY   = .00025434
INCLINATION    = 34.9911
RA_OF_ASC_NODE = 95.8216
ARG_OF_PERICENTER = 280.2624
MEAN_ANOMALY   = 79.7794

EPHEMERIS_TYPE = 0
CLASSIFICATION_TYPE = U
NORAD_CAT_ID   = 68140
ELEMENT_SET_NO = 999
REV_AT_EPOCH   = 70
BSTAR          = .14051309E-3
MEAN_MOTION_DOT = .1413E-4
MEAN_MOTION_DDOT = 0

CCSDS_OMM_VERS = 2.0
CREATION_DATE  = 
ORIGINATOR     = 

OBJECT_NAME    = CZ-2D R/B
OBJECT_ID      = 2026-048C
CENTER_NAME    = EARTH
REF_FRAME      = TEME
TIME_SYSTEM    = UTC
MEAN_ELEMENT_THEORY = SGP/SGP4

EPOCH          = 2026-03-17T19:03:47.348928
MEAN_MOTION    = 14.95525523
ECCENTRICITY   = .00152108
INCLINATION    = 35.1293
RA_OF_ASC_NODE = 95.5462
ARG_OF_PERICENTER = 34.8608
MEAN_ANOMALY   = 325.3095

EPHEMERIS_TYPE = 0
CLASSIFICATION_TYPE = U
NORAD_CAT_ID   = 68141
ELEMENT_SET_NO = 999
REV_AT_EPOCH   = 71
BSTAR          = .13327341E-3
MEAN_MOTION_DOT = .1477E-4
MEAN_MOTION_DDOT = 0

CCSDS_OMM_VERS = 2.0
CREATION_DATE  = 
ORIGINATOR     = 

OBJECT_NAME    = YAOGAN-50 02
OBJECT_ID      = 2026-051A
CENTER_NAME    = EARTH
REF_FRAME      = TEME
TIME_SYSTEM    = UTC
MEAN_ELEMENT_THEORY = SGP/SGP4

EPOCH          = 2026-03-17T22:35:08.509344
MEAN_MOTION    = 14.13401079
ECCENTRICITY   = .01362108
INCLINATION    = 142.0011
RA_OF_ASC_NODE = 246.2654
ARG_OF_PERICENTER = 137.3997
MEAN_ANOMALY   = 223.7376

EPHEMERIS_TYPE = 0
CLASSIFICATION_TYPE = U
NORAD_CAT_ID   = 68196
ELEMENT_SET_NO = 999
REV_AT_EPOCH   = 34
BSTAR          = .2789282E-4
MEAN_MOTION_DOT = .26E-5
MEAN_MOTION_DDOT = 0

CCSDS_OMM_VERS = 2.0
CREATION_DATE  = 
ORIGINATOR     = 

OBJECT_NAME    = CZ-6A R/B
OBJECT_ID      = 2026-051B
CENTER_NAME    = EARTH
REF_FRAME      = TEME
TIME_SYSTEM    = UTC
MEAN_ELEMENT_THEORY = SGP/SGP4

EPOCH          = 2026-03-17T22:38:39.995808
MEAN_MOTION    = 14.56353781
ECCENTRICITY   = .01856198
INCLINATION    = 142.0312
RA_OF_ASC_NODE = 247.1151
ARG_OF_PERICENTER = 109.1748
MEAN_ANOMALY   = 252.9176

EPHEMERIS_TYPE = 0
CLASSIFICATION_TYPE = U
NORAD_CAT_ID   = 68197
ELEMENT_SET_NO = 999
REV_AT_EPOCH   = 36
BSTAR          = .15131983E-3
MEAN_MOTION_DOT = .1165E-4
MEAN_MOTION_DDOT = 0

CCSDS_OMM_VERS = 2.0
CREATION_DATE  = 
ORIGINATOR     = 

OBJECT_NAME    = 2026-052A
OBJECT_ID      = 2026-052A
CENTER_NAME    = EARTH
REF_FRAME      = TEME
TIME_SYSTEM    = UTC
MEAN_ELEMENT_THEORY = SGP/SGP4

EPOCH          = 2026-03-17T14:37:44.416704
MEAN_MOTION    = 15.09810907
ECCENTRICITY   = .00123602
INCLINATION    = 97.5384
RA_OF_ASC_NODE = 152.8389
ARG_OF_PERICENTER = 260.1164
MEAN_ANOMALY   = 99.8670

EPHEMERIS_TYPE = 0
CLASSIFICATION_TYPE = U
NORAD_CAT_ID   = 68198
ELEMENT_SET_NO = 999
REV_AT_EPOCH   = 22
BSTAR          = .62244605E-4
MEAN_MOTION_DOT = .944E-5
MEAN_MOTION_DDOT = 0

CCSDS_OMM_VERS = 2.0
CREATION_DATE  = 
ORIGINATOR     = 

OBJECT_NAME    = 2026-052B
OBJECT_ID      = 2026-052B
CENTER_NAME    = EARTH
REF_FRAME      = TEME
TIME_SYSTEM    = UTC
MEAN_ELEMENT_THEORY = SGP/SGP4

EPOCH          = 2026-03-17T14:37:30.508032
MEAN_MOTION    = 15.09980125
ECCENTRICITY   = .00115134
INCLINATION    = 97.5384
RA_OF_ASC_NODE = 152.8379
ARG_OF_PERICENTER = 261.7624
MEAN_ANOMALY   = 98.2300

EPHEMERIS_TYPE = 0
CLASSIFICATION_TYPE = U
NORAD_CAT_ID   = 68199
ELEMENT_SET_NO = 999
REV_AT_EPOCH   = 22
BSTAR          = .61881033E-4
MEAN_MOTION_DOT = .942E-5
MEAN_MOTION_DDOT = 0

CCSDS_OMM_VERS = 2.0
CREATION_DATE  = 
ORIGINATOR     = 

OBJECT_NAME    = 2026-052C
OBJECT_ID      = 2026-052C
CENTER_NAME    = EARTH
REF_FRAME      = TEME
TIME_SYSTEM    = UTC
MEAN_ELEMENT_THEORY = SGP/SGP4

EPOCH          = 2026-03-17T14:37:19.461792
MEAN_MOTION    = 15.10119749
ECCENTRICITY   = .00112487
INCLINATION    = 97.5384
RA_OF_ASC_NODE = 152.8392
ARG_OF_PERICENTER = 264.6894
MEAN_ANOMALY   = 95.3052

EPHEMERIS_TYPE = 0
CLASSIFICATION_TYPE = U
NORAD_CAT_ID   = 68200
ELEMENT_SET_NO = 999
REV_AT_EPOCH   = 21
BSTAR          = .62261856E-4
MEAN_MOTION_DOT = .952E-5
MEAN_MOTION_DDOT = 0

