GUOWANG GROUP 20 OBJECT*
1 68135U 26047G   26076.91657417 -.00000144  00000+0  50700-5 0  9999
2 68135  50.0116  36.9096 0007393 287.5595  72.4502 14.06047313   722
GUOWANG GROUP 20 OBJECT*
1 68136U 26047H   26076.70301301 -.00000142  00000+0  64562-5 0  9994
2 68136  50.0098  37.7770 0007513 293.0100  67.0012 14.06144251   688
GUOWANG GROUP 20 OBJECT*
1 68137U 26047J   26076.91576187 -.00000142  00000+0  63436-5 0  9993
2 68137  50.0080  36.9007 0005923 289.0518  70.9745 14.06272217   720
CZ-8A R/B               
1 68138U 26047K   26076.96577024 -.00000197  00000+0 -22596-4 0  9992
2 68138  49.9542  36.4466 0044742 166.8846 193.3235 14.12228004   729
SHIYAN-30 03            
1 68139U 26048A   26076.73665903  .00002207  00000+0  21802-3 0  9993
2 68139  34.9994  95.8126 0004118 275.0876  84.9359 14.91668826   703
SHIYAN-30 04            
1 68140U 26048B   26076.73745098  .00001413  00000+0  14051-3 0  9995
2 68140  34.9911  95.8216 0002543 280.2624  79.7794 14.91679159   709
CZ-2D R/B               
1 68141U 26048C   26076.79429802  .00001477  00000+0  13327-3 0  9999
2 68141  35.1293  95.5462 0015210  34.8608 325.3095 14.95525523   710
YAOGAN-50 02            
1 68196U 26051A   26076.94107071  .00000260  00000+0  27893-4 0  9994
2 68196 142.0011 246.2654 0136210 137.3997 223.7376 14.13401079   349
CZ-6A R/B               
1 68197U 26051B   26076.94351847  .00001165  00000+0  15132-3 0  9994
2 68197 142.0312 247.1151 0185619 109.1748 252.9176 14.56353781   361
2026-052A               
1 68198U 26052A   26076.60954186  .00000944  00000+0  62245-4 0  9996
2 68198  97.5384 152.8389 0012360 260.1164  99.8670 15.09810907   221
2026-052B               
1 68199U 26052B   26076.60938088  .00000942  00000+0  61881-4 0  9993
2 68199  97.5384 152.8379 0011513 261.7624  98.2300 15.09980125   221
2026-052C               
1 68200U 26052C   26076.60925303  .00000952  00000+0  62262-4 0  9997
2 68200  97.5384 152.8392 0011248 264.6894  95.3052 15.10119749   214
